NORAD_CAT_ID,OBJECT_NAME,OBJECT_TYPE,EPOCH,MEAN_MOTION,ECCENTRICITY,INCLINATION,RA_OF_ASC_NODE,ARG_OF_PERICENTER,MEAN_ANOMALY,BSTAR,MEAN_MOTION_DOT,MEAN_MOTION_DDOT,TLE_LINE0,TLE_LINE1,TLE_LINE2,SEMIMAJOR_AXIS,PERIOD,APOGEE,PERIGEE,DECAYED
53971.0,STARLINK-4639,PAYLOAD,2023-09-27 01:22:40,15.08836949,0.0001746,53.218,280.2393,101.1605,258.9584,3.4763e-05,2.65e-06,0.0,0 STARLINK-4639,1 53971U 22125H   23270.05741404  .00000265  00000-0  34763-4 0  9996,2 53971  53.2180 280.2393 0001746 101.1605 258.9584 15.08836949 54334,6917.89,95.438,540.963,538.547,0.0
53971.0,STARLINK-4639,PAYLOAD,2023-09-27 07:44:13,15.08835724,0.0001367,53.2178,279.0508,88.5769,271.538,4.8184e-05,4.79e-06,0.0,0 STARLINK-4639,1 53971U 22125H   23270.32237510  .00000479  00000-0  48184-4 0  9993,2 53971  53.2178 279.0508 0001367  88.5769 271.5380 15.08835724 54305,6917.893,95.438,540.704,538.813,0.0
53971.0,STARLINK-4639,PAYLOAD,2023-09-28 01:13:28,15.08832135,0.0001529,53.218,275.7802,102.8854,257.2309,-2.866e-05,-7.44e-06,0.0,0 STARLINK-4639,1 53971U 22125H   23271.05102150 -.00000744  00000-0 -28660-4 0  9999,2 53971  53.2180 275.7802 0001529 102.8854 257.2309 15.08832135 54487,6917.904,95.438,540.827,538.712,0.0
53971.0,STARLINK-4639,PAYLOAD,2023-09-28 05:59:37,15.08832423,0.0001588,53.218,274.8884,99.3331,260.7841,-5.9249e-05,-1.231e-05,0.0,0 STARLINK-4639,1 53971U 22125H   23271.24974322 -.00001231  00000-0 -59249-4 0  9997,2 53971  53.2180 274.8884 0001588  99.3331 260.7841 15.08832423 54448,6917.904,95.438,540.867,538.67,0.0
53971.0,STARLINK-4639,PAYLOAD,2023-09-29 01:04:15,15.08836693,0.000136,53.2174,271.319,97.1745,262.9402,9.9322e-05,1.293e-05,0.0,0 STARLINK-4639,1 53971U 22125H   23272.04461876  .00001293  00000-0  99322-4 0  9993,2 53971  53.2174 271.3190 0001360  97.1745 262.9402 15.08836693 54637,6917.89,95.438,540.696,538.815,0.0
53971.0,STARLINK-4639,PAYLOAD,2023-09-29 07:25:47,15.08842992,0.0001345,53.2173,270.1293,96.7796,263.3349,0.0001483,2.073e-05,0.0,0 STARLINK-4639,1 53971U 22125H   23272.30957428  .00002073  00000-0  14830-3 0  9992,2 53971  53.2173 270.1293 0001345  96.7796 263.3349 15.08842992 54602,6917.871,95.437,540.667,538.806,0.0
53971.0,STARLINK-4639,PAYLOAD,2023-09-30 05:41:10,15.08845537,0.0001382,53.2168,265.9607,88.5154,271.5996,0.00016245,2.299e-05,0.0,0 STARLINK-4639,1 53971U 22125H   23273.23693281  .00002299  00000-0  16245-3 0  9991,2 53971  53.2168 265.9607 0001382  88.5154 271.5996 15.08845537 54747,6917.863,95.437,540.685,538.772,0.0
53971.0,STARLINK-4639,PAYLOAD,2023-09-30 16:48:53,15.08841349,0.0001474,53.2177,263.882,95.468,264.648,8.4515e-05,1.057e-05,0.0,0 STARLINK-4639,1 53971U 22125H   23273.70061692  .00001057  00000-0  84515-4 0  9995,2 53971  53.2177 263.8820 0001474  95.4680 264.6480 15.08841349 54887,6917.876,95.437,540.761,538.722,0.0
53971.0,STARLINK-4639,PAYLOAD,2023-10-01 08:42:44,15.08846025,0.0001675,53.2175,260.9096,94.141,265.9773,2.1884e-05,6e-07,0.0,0 STARLINK-4639,1 53971U 22125H   23274.36301630  .00000060  00000-0  21884-4 0  9990,2 53971  53.2175 260.9096 0001675  94.1410 265.9773 15.08846025 54917,6917.862,95.437,540.886,538.568,0.0
53971.0,STARLINK-4639,PAYLOAD,2023-10-01 16:39:40,15.0883992,0.000156,53.217,259.424,83.7382,276.3788,-1.8784e-06,-3.18e-06,0.0,0 STARLINK-4639,1 53971U 22125H   23274.69422114 -.00000318  00000-0 -18784-5 0  9991,2 53971  53.2170 259.4240 0001560  83.7382 276.3788 15.08839920 55033,6917.881,95.438,540.825,538.666,0.0
53971.0,STARLINK-4639,PAYLOAD,2023-10-02 16:30:27,15.08836112,0.0001599,53.2171,254.9598,103.7674,256.3496,3.3808e-05,2.5e-06,0.0,0 STARLINK-4639,1 53971U 22125H   23275.68782328  .00000250  00000-0  33808-4 0  9993,2 53971  53.2171 254.9598 0001599 103.7674 256.3496 15.08836112 55112,6917.892,95.438,540.863,538.651,0.0
53971.0,STARLINK-4639,PAYLOAD,2023-10-03 05:13:32,15.08841233,0.0001615,53.2155,252.5824,100.041,260.0765,0.00015933,2.249e-05,0.0,0 STARLINK-4639,1 53971U 22125H   23276.21773988  .00002249  00000-0  15933-3 0  9993,2 53971  53.2155 252.5824 0001615 100.0410 260.0765 15.08841233 55264,6917.877,95.437,540.859,538.624,0.0
53971.0,STARLINK-4639,PAYLOAD,2023-10-03 08:24:18,15.08844992,0.0001554,53.2161,251.9868,107.8621,252.254,0.00014246,1.98e-05,0.0,0 STARLINK-4639,1 53971U 22125H   23276.35021781  .00001980  00000-0  14246-3 0  9992,2 53971  53.2161 251.9868 0001554 107.8621 252.2540 15.08844992 55217,6917.865,95.437,540.805,538.655,0.0
53971.0,STARLINK-4639,PAYLOAD,2023-10-04 14:36:39,15.08840344,0.0001697,53.2153,246.3379,94.5897,265.5289,0.00010866,1.442e-05,0.0,0 STARLINK-4639,1 53971U 22125H   23277.60878661  .00001442  00000-0  10866-3 0  9995,2 53971  53.2153 246.3379 0001697  94.5897 265.5289 15.08840344 55470,6917.879,95.438,540.918,538.57,0.0
53971.0,STARLINK-4639,PAYLOAD,2023-10-05 04:55:06,15.08853348,0.0001691,53.2184,243.6657,100.2694,259.8489,0.00021936,3.206e-05,0.0,0 STARLINK-4639,1 53971U 22125H   23278.20493919  .00003206  00000-0  21936-3 0  9991,2 53971  53.2184 243.6657 0001691 100.2694 259.8489 15.08853348 55563,6917.84,95.437,540.874,538.535,0.0
53971.0,STARLINK-4639,PAYLOAD,2023-10-05 14:27:25,15.08849377,0.0001512,53.2178,241.8778,90.4683,269.6482,7.4854e-05,9.04e-06,0.0,0 STARLINK-4639,1 53971U 22125H   23278.60237936  .00000904  00000-0  74854-4 0  9990,2 53971  53.2178 241.8778 0001512  90.4683 269.6482 15.08849377 55626,6917.852,95.437,540.763,538.671,0.0
53971.0,STARLINK-4639,PAYLOAD,2023-10-06 03:10:31,15.08837823,0.0001639,53.219,239.5032,104.5722,255.5452,2.8251e-07,-2.84e-06,0.0,0 STARLINK-4639,1 53971U 22125H   23279.13230510 -.00000284  00000-0  28251-6 0  9994,2 53971  53.2190 239.5032 0001639 104.5722 255.5452 15.08837823 55701,6917.887,95.438,540.886,538.618,0.0
53971.0,STARLINK-4639,PAYLOAD,2023-10-06 06:21:17,15.08847021,0.0001439,53.2176,238.9079,99.5625,260.553,0.00015355,2.157e-05,0.0,0 STARLINK-4639,1 53971U 22125H   23279.26478101  .00002157  00000-0  15355-3 0  9996,2 53971  53.2176 238.9079 0001439  99.5625 260.5530 15.08847021 55728,6917.859,95.437,540.719,538.728,0.0
53971.0,STARLINK-4639,PAYLOAD,2023-10-06 14:18:13,15.08841333,0.0001666,53.2186,237.4191,86.0951,274.0232,3.5367e-05,2.75e-06,0.0,0 STARLINK-4639,1 53971U 22125H   23279.59598415  .00000275  00000-0  35367-4 0  9998,2 53971  53.2186 237.4191 0001666  86.0951 274.0232 15.08841333 55777,6917.876,95.437,540.894,538.589,0.0
53971.0,STARLINK-4639,PAYLOAD,2023-10-07 07:47:27,15.08838985,0.0001736,53.2171,234.145,79.9431,280.1757,-1.0473e-05,-4.55e-06,0.0,0 STARLINK-4639,1 53971U 22125H   23280.32462680 -.00000455  00000-0 -10473-4 0  9998,2 53971  53.2171 234.1450 0001736  79.9431 280.1757 15.08838985 55819,6917.883,95.438,540.949,538.548,0.0
53971.0,STARLINK-4639,PAYLOAD,2023-10-07 14:09:00,15.08840885,0.0001168,53.2164,232.9552,96.4847,263.6278,-7.4113e-05,-1.467e-05,0.0,0 STARLINK-4639,1 53971U 22125H   23280.58958387 -.00001467  00000-0 -74113-4 0  9995,2 53971  53.2164 232.9552 0001168  96.4847 263.6278 15.08840885 55854,6917.878,95.437,540.551,538.935,0.0
53971.0,STARLINK-4639,PAYLOAD,2023-10-08 02:52:05,15.08845963,0.0001356,53.2171,230.5767,107.8572,252.2568,0.00013246,1.821e-05,0.0,0 STARLINK-4639,1 53971U 22125H   23281.11950369  .00001821  00000-0  13246-3 0  9998,2 53971  53.2171 230.5767 0001356 107.8572 252.2568 15.08845963 56001,6917.862,95.437,540.665,538.789,0.0
53971.0,STARLINK-4639,PAYLOAD,2023-10-08 13:59:47,15.08842109,0.0001364,53.2176,228.4959,91.137,268.9778,7.5708e-05,9.17e-06,0.0,0 STARLINK-4639,1 53971U 22125H   23281.58318637  .00000917  00000-0  75708-4 0  9992,2 53971  53.2176 228.4959 0001364  91.1370 268.9778 15.08842109 56001,6917.874,95.437,540.683,538.795,0.0
53971.0,STARLINK-4639,PAYLOAD,2023-10-08 20:21:20,15.08839976,0.0001628,53.2173,227.3077,83.3075,276.8102,0.00016236,2.297e-05,0.0,0 STARLINK-4639,1 53971U 22125H   23281.84814944  .00002297  00000-0  16236-3 0  9996,2 53971  53.2173 227.3077 0001628  83.3075 276.8102 15.08839976 56046,6917.88,95.438,540.872,538.619,0.0
53971.0,STARLINK-4639,PAYLOAD,2023-10-09 13:50:34,15.08840205,0.0001332,53.2176,224.0339,98.8986,261.2157,9.9964e-05,1.303e-05,0.0,0 STARLINK-4639,1 53971U 22125H   23282.57678769  .00001303  00000-0  99964-4 0  9997,2 53971  53.2176 224.0339 0001332  98.8986 261.2157 15.08840205 56155,6917.88,95.438,540.666,538.823,0.0
53971.0,STARLINK-4639,PAYLOAD,2023-10-09 20:12:07,15.08837261,0.0001388,53.2169,222.8463,100.7626,259.3523,9.8242e-05,1.276e-05,0.0,0 STARLINK-4639,1 53971U 22125H   23282.84175048  .00001276  00000-0  98242-4 0  9996,2 53971  53.2169 222.8463 0001388 100.7626 259.3523 15.08837261 56193,6917.889,95.438,540.714,538.794,0.0
53971.0,STARLINK-4639,PAYLOAD,2023-10-10 05:44:25,15.08847499,0.0001589,53.217,221.0603,105.0835,255.0333,6.2537e-05,7.08e-06,0.0,0 STARLINK-4639,1 53971U 22125H   23283.23918556  .00000708  00000-0  62537-4 0  9996,2 53971  53.2170 221.0603 0001589 105.0835 255.0333 15.08847499 56258,6917.857,95.437,540.822,538.623,0.0
53971.0,STARLINK-4639,PAYLOAD,2023-10-11 02:24:27,15.08839454,0.0001579,53.2173,217.1966,91.7551,268.3622,3.9084e-05,3.34e-06,0.0,0 STARLINK-4639,1 53971U 22125H   23284.10031353  .00000334  00000-0  39084-4 0  9990,2 53971  53.2173 217.1966 0001579  91.7551 268.3622 15.08839454 56456,6917.882,95.438,540.839,538.655,0.0
53971.0,STARLINK-4639,PAYLOAD,2023-10-11 05:35:13,15.08841952,0.0001656,53.217,216.6009,99.8142,260.3038,7.8948e-05,9.69e-06,0.0,0 STARLINK-4639,1 53971U 22125H   23284.23279224  .00000969  00000-0  78948-4 0  9991,2 53971  53.2170 216.6009 0001656  99.8142 260.3038 15.08841952 56400,6917.874,95.437,540.885,538.594,0.0
53971.0,STARLINK-4639,PAYLOAD,2023-10-12 03:50:37,15.08839881,0.0001213,53.2175,212.4385,91.3148,268.7983,0.00019324,2.789e-05,0.0,0 STARLINK-4639,1 53971U 22125H   23285.16016022  .00002789  00000-0  19324-3 0  9993,2 53971  53.2175 212.4385 0001213  91.3148 268.7983 15.08839881 56610,6917.881,95.438,540.585,538.907,0.0
